{"type": "FeatureCollection", "features": [ {"type": "Feature", "properties": {"norad_id": 30829, "name": "FENGYUN 1C DEB", "group": "fengyun-1c-debris", "lat": 67.29919419865331, "lon": -174.06750577434448, "alt_km": 879.6181188563141, "timestamp": "2025-12-17T17:50:19.529857+00:00", "meta": {"OBJECT_NAME": "FENGYUN 1C DEB", "OBJECT_ID": "1999-025AVP", "EPOCH": "2025-12-17T05:22:50.536992", "MEAN_MOTION": 14.08660989, "ECCENTRICITY": 0.00353029, "INCLINATION": 98.7772, "RA_OF_ASC_NODE": 343.7533, "ARG_OF_PERICENTER": 321.8624, "MEAN_ANOMALY": 38.0048, "EPHEMERIS_TYPE": 0, "CLASSIFICATION_TYPE": "U", "NORAD_CAT_ID": 30829, "ELEMENT_SET_NO": 999, "REV_AT_EPOCH": 96496, "BSTAR": 0.00035091646, "MEAN_MOTION_DOT": 5.64e-06, "MEAN_MOTION_DDOT": 0}, "tle": {"line1": "1 30829U 99025AVP 25351.22419603  .00000564  00000+0  35092-3 0  9996", "line2": "2 30829  98.7772 343.7533 0035302 321.8624  38.0048 14.08660989964969"}}, "geometry": {"type": "Point", "coordinates": [-174.06750577434448, 67.29919419865331]}}, {"type": "Feature", "properties": {"norad_id": 30830, "name": "FENGYUN 1C DEB", "group": "fengyun-1c-debris", "lat": 27.59900097110226, "lon": -24.594407226377776, "alt_km": 869.0640868067894, "timestamp": "2025-12-17T17:50:19.529868+00:00", "meta": {"OBJECT_NAME": "FENGYUN 1C DEB", "OBJECT_ID": "1999-025AVQ", "EPOCH": "2025-12-15T21:48:01.351008", "MEAN_MOTION": 14.12232465, "ECCENTRICITY": 0.00308204, "INCLINATION": 98.7294, "RA_OF_ASC_NODE": 338.2258, "ARG_OF_PERICENTER": 179.6677, "MEAN_ANOMALY": 244.9216, "EPHEMERIS_TYPE": 0, "CLASSIFICATION_TYPE": "U", "NORAD_CAT_ID": 30830, "ELEMENT_SET_NO": 999, "REV_AT_EPOCH": 96644, "BSTAR": 0.0002741184, "MEAN_MOTION_DOT": 4.63e-06, "MEAN_MOTION_DDOT": 0}, "tle": {"line1": "1 30830U 99025AVQ 25349.90834897  .00000463  00000+0  27412-3 0  9991", "line2": "2 30830  98.7294 338.2258 0030820 179.6677 244.9216 14.12232465966449"}}, "geometry": {"type": "Point", "coordinates": [-24.594407226377776, 27.59900097110226]}}, {"type": "Feature", "properties": {"norad_id": 30831, "name": "FENGYUN 1C DEB", "group": "fengyun-1c-debris", "lat": -30.214902724411097, "lon": -40.62193898108011, "alt_km": 832.9620238027737, "timestamp": "2025-12-17T17:50:19.529878+00:00", "meta": {"OBJECT_NAME": "FENGYUN 1C DEB", "OBJECT_ID": "1999-025AVR", "EPOCH": "2025-12-16T05:37:15.985920", "MEAN_MOTION": 14.31095192, "ECCENTRICITY": 0.00554083, "INCLINATION": 99.3281, "RA_OF_ASC_NODE": 143.2521, "ARG_OF_PERICENTER": 24.0971, "MEAN_ANOMALY": 336.2784, "EPHEMERIS_TYPE": 0, "CLASSIFICATION_TYPE": "U", "NORAD_CAT_ID": 30831, "ELEMENT_SET_NO": 999, "REV_AT_EPOCH": 65300, "BSTAR": 0.00039064862, "MEAN_MOTION_DOT": 9.97e-06, "MEAN_MOTION_DDOT": 0}, "tle": {"line1": "1 30831U 99025AVR 25350.23421280  .00000997  00000+0  39065-3 0  9997", "line2": "2 30831  99.3281 143.2521 0055408  24.0971 336.2784 14.31095192653004"}}, "geometry": {"type": "Point", "coordinates": [-40.62193898108011, -30.214902724411097]}}, {"type": "Feature", "properties": {"norad_id": 30833, "name": "FENGYUN 1C DEB", "group": "fengyun-1c-debris", "lat": 27.110403227620527, "lon": -36.454353000515546, "alt_km": 778.3719114535024, "timestamp": "2025-12-17T17:50:19.529888+00:00", "meta": {"OBJECT_NAME": "FENGYUN 1C DEB", "OBJECT_ID": "1999-025AVT", "EPOCH": "2025-12-17T03:39:45.550656", "MEAN_MOTION": 14.26770389, "ECCENTRICITY": 0.00330645, "INCLINATION": 99.844, "RA_OF_ASC_NODE": 137.7822, "ARG_OF_PERICENTER": 168.3621, "MEAN_ANOMALY": 191.8327, "EPHEMERIS_TYPE": 0, "CLASSIFICATION_TYPE": "U", "NORAD_CAT_ID": 30833, "ELEMENT_SET_NO": 999, "REV_AT_EPOCH": 64474, "BSTAR": 0.00047701663, "MEAN_MOTION_DOT": 1.108e-05, "MEAN_MOTION_DDOT": 0}, "tle": {"line1": "1 30833U 99025AVT 25351.15261054  .00001108  00000+0  47702-3 0  9994", "line2": "2 30833  99.8440 137.7822 0033064 168.3621 191.8327 14.26770389644749"}}, "geometry": {"type": "Point", "coordinates": [-36.454353000515546, 27.110403227620527]}}, {"type": "Feature", "properties": {"norad_id": 30836, "name": "FENGYUN 1C DEB", "group": "fengyun-1c-debris", "lat": 34.85372060783173, "lon": 18.127575562589108, "alt_km": 868.4056275720695, "timestamp": "2025-12-17T17:50:19.529898+00:00", "meta": {"OBJECT_NAME": "FENGYUN 1C DEB", "OBJECT_ID": "1999-025AVW", "EPOCH": "2025-12-15T19:45:04.449888", "MEAN_MOTION": 14.11938241, "ECCENTRICITY": 0.00257935, "INCLINATION": 98.7449, "RA_OF_ASC_NODE": 22.4088, "ARG_OF_PERICENTER": 235.6479, "MEAN_ANOMALY": 124.2252, "EPHEMERIS_TYPE": 0, "CLASSIFICATION_TYPE": "U", "NORAD_CAT_ID": 30836, "ELEMENT_SET_NO": 999, "REV_AT_EPOCH": 62047, "BSTAR": 0.00035769901, "MEAN_MOTION_DOT": 6.13e-06, "MEAN_MOTION_DDOT": 0}, "tle": {"line1": "1 30836U 99025AVW 25349.82296817  .00000613  00000+0  35770-3 0  9995", "line2": "2 30836  98.7449  22.4088 0025793 235.6479 124.2252 14.11938241620470"}}, "geometry": {"type": "Point", "coordinates": [18.127575562589108, 34.85372060783173]}}, {"type": "Feature", "properties": {"norad_id": 30837, "name": "FENGYUN 1C DEB", "group": "fengyun-1c-debris", "lat": 53.92754624511881, "lon": 169.94207124485524, "alt_km": 814.9810451687108, "timestamp": "2025-12-17T17:50:19.529909+00:00", "meta": {"OBJECT_NAME": "FENGYUN 1C DEB", "OBJECT_ID": "1999-025AVX", "EPOCH": "2025-12-16T22:50:26.759040", "MEAN_MOTION": 14.14527057, "ECCENTRICITY": 0.00331284, "INCLINATION": 98.6788, "RA_OF_ASC_NODE": 337.0698, "ARG_OF_PERICENTER": 121.5893, "MEAN_ANOMALY": 294.7451, "EPHEMERIS_TYPE": 0, "CLASSIFICATION_TYPE": "U", "NORAD_CAT_ID": 30837, "ELEMENT_SET_NO": 999, "REV_AT_EPOCH": 96878, "BSTAR": 0.00029971904, "MEAN_MOTION_DOT": 5.36e-06, "MEAN_MOTION_DDOT": 0}, "tle": {"line1": "1 30837U 99025AVX 25350.95169860  .00000536  00000+0  29972-3 0  9990", "line2": "2 30837  98.6788 337.0698 0033128 121.5893 294.7451 14.14527057968787"}}, "geometry": {"type": "Point", "coordinates": [169.94207124485524, 53.92754624511881]}}, {"type": "Feature", "properties": {"norad_id": 30838, "name": "FENGYUN 1C DEB", "group": "fengyun-1c-debris", "lat": 8.905421959470809, "lon": -95.47248259724181, "alt_km": 751.2457666187865, "timestamp": "2025-12-17T17:50:19.529919+00:00", "meta": {"OBJECT_NAME": "FENGYUN 1C DEB", "OBJECT_ID": "1999-025AVY", "EPOCH": "2025-12-16T05:18:25.614720", "MEAN_MOTION": 14.47799826, "ECCENTRICITY": 0.00343042, "INCLINATION": 99.0428, "RA_OF_ASC_NODE": 264.3308, "ARG_OF_PERICENTER": 147.1927, "MEAN_ANOMALY": 213.1403, "EPHEMERIS_TYPE": 0, "CLASSIFICATION_TYPE": "U", "NORAD_CAT_ID": 30838, "ELEMENT_SET_NO": 999, "REV_AT_EPOCH": 97364, "BSTAR": 0.0016841128, "MEAN_MOTION_DOT": 6.228e-05, "MEAN_MOTION_DDOT": 0}, "tle": {"line1": "1 30838U 99025AVY 25350.22112980  .00006228  00000+0  16841-2 0  9996", "line2": "2 30838  99.0428 264.3308 0034304 147.1927 213.1403 14.47799826973647"}}, "geometry": {"type": "Point", "coordinates": [-95.47248259724181, 8.905421959470809]}}, {"type": "Feature", "properties": {"norad_id": 30840, "name": "FENGYUN 1C DEB", "group": "fengyun-1c-debris", "lat": 14.661526907282905, "lon": 0.8273099482502859, "alt_km": 545.6548011855612, "timestamp": "2025-12-17T17:50:19.529929+00:00", "meta": {"OBJECT_NAME": "FENGYUN 1C DEB", "OBJECT_ID": "1999-025AWA", "EPOCH": "2025-12-16T23:41:44.637216", "MEAN_MOTION": 14.61149407, "ECCENTRICITY": 0.02172587, "INCLINATION": 98.0229, "RA_OF_ASC_NODE": 2.2085, "ARG_OF_PERICENTER": 357.2954, "MEAN_ANOMALY": 2.7055, "EPHEMERIS_TYPE": 0, "CLASSIFICATION_TYPE": "U", "NORAD_CAT_ID": 30840, "ELEMENT_SET_NO": 999, "REV_AT_EPOCH": 73193, "BSTAR": 0.00064863542, "MEAN_MOTION_DOT": 4.411e-05, "MEAN_MOTION_DDOT": 0}, "tle": {"line1": "1 30840U 99025AWA 25350.98732219  .00004411  00000+0  64864-3 0  9996", "line2": "2 30840  98.0229   2.2085 0217258 357.2954   2.7055 14.61149407731933"}}, "geometry": {"type": "Point", "coordinates": [0.8273099482502859, 14.661526907282905]}}, {"type": "Feature", "properties": {"norad_id": 30843, "name": "FENGYUN 1C DEB", "group": "fengyun-1c-debris", "lat": 43.780937819459425, "lon": 55.05734867081609, "alt_km": 659.8402061573906, "timestamp": "2025-12-17T17:50:19.529940+00:00", "meta": {"OBJECT_NAME": "FENGYUN 1C DEB", "OBJECT_ID": "1999-025AWD", "EPOCH": "2025-12-16T03:36:34.550496", "MEAN_MOTION": 14.52481471, "ECCENTRICITY": 0.01489512, "INCLINATION": 98.8423, "RA_OF_ASC_NODE": 61.9587, "ARG_OF_PERICENTER": 109.3582, "MEAN_ANOMALY": 252.3783, "EPHEMERIS_TYPE": 0, "CLASSIFICATION_TYPE": "U", "NORAD_CAT_ID": 30843, "ELEMENT_SET_NO": 999, "REV_AT_EPOCH": 99374, "BSTAR": 0.00015547941, "MEAN_MOTION_DOT": 6.77e-06, "MEAN_MOTION_DDOT": 0}, "tle": {"line1": "1 30843U 99025AWD 25350.15039989  .00000677  00000+0  15548-3 0  9997", "line2": "2 30843  98.8423  61.9587 0148951 109.3582 252.3783 14.52481471993745"}}, "geometry": {"type": "Point", "coordinates": [55.05734867081609, 43.780937819459425]}}, {"type": "Feature", "properties": {"norad_id": 30845, "name": "FENGYUN 1C DEB", "group": "fengyun-1c-debris", "lat": 52.472651405684616, "lon": -19.33067463131762, "alt_km": 1099.0998184278378, "timestamp": "2025-12-17T17:50:19.529950+00:00", "meta": {"OBJECT_NAME": "FENGYUN 1C DEB", "OBJECT_ID": "1999-025AWF", "EPOCH": "2025-12-15T06:22:59.763072", "MEAN_MOTION": 13.76859994, "ECCENTRICITY": 0.01920382, "INCLINATION": 98.3793, "RA_OF_ASC_NODE": 349.5477, "ARG_OF_PERICENTER": 263.621, "MEAN_ANOMALY": 116.2524, "EPHEMERIS_TYPE": 0, "CLASSIFICATION_TYPE": "U", "NORAD_CAT_ID": 30845, "ELEMENT_SET_NO": 999, "REV_AT_EPOCH": 94278, "BSTAR": 0.00037762019, "MEAN_MOTION_DOT": 3.88e-06, "MEAN_MOTION_DDOT": 0}, "tle": {"line1": "1 30845U 99025AWF 25349.26596948  .00000388  00000+0  37762-3 0  9993", "line2": "2 30845  98.3793 349.5477 0192038 263.6210 116.2524 13.76859994942785"}}, "geometry": {"type": "Point", "coordinates": [-19.33067463131762, 52.472651405684616]}}]}